NORAD_CAT_ID,OBJECT_NAME,OBJECT_TYPE,EPOCH,MEAN_MOTION,ECCENTRICITY,INCLINATION,RA_OF_ASC_NODE,ARG_OF_PERICENTER,MEAN_ANOMALY,BSTAR,MEAN_MOTION_DOT,MEAN_MOTION_DDOT,TLE_LINE0,TLE_LINE1,TLE_LINE2,SEMIMAJOR_AXIS,PERIOD,APOGEE,PERIGEE,DECAYED
55407.0,STARLINK-5019,PAYLOAD,2024-05-31 17:19:10,14.98334477,0.0003051,69.9999,255.7788,270.6265,89.4545,0.00014042,1.583e-05,0.0,0 STARLINK-5019,1 55407U 23014S   24152.72164844  .00001583  00000-0  14042-3 0  9992,2 55407  69.9999 255.7788 0003051 270.6265  89.4545 14.98334477 75145,6950.179,96.107,574.165,569.924,0.0
55407.0,STARLINK-5019,PAYLOAD,2024-05-31 23:43:41,14.98374542,0.0003365,70.0002,255.1049,269.1934,90.8839,-0.00082484,-9.933e-05,0.0,0 STARLINK-5019,1 55407U 23014S   24152.98867841 -.00009933  00000-0 -82484-3 0  9991,2 55407  70.0002 255.1049 0003365 269.1934  90.8839 14.98374542 74240,6950.055,96.104,574.259,569.581,0.0
55407.0,STARLINK-5019,PAYLOAD,2024-06-01 12:32:47,14.98327523,0.0003079,70.0002,253.7595,270.2288,89.8519,-2.0517e-05,-3.38e-06,0.0,0 STARLINK-5019,1 55407U 23014S   24153.52277588 -.00000338  00000-0 -20517-4 0  9995,2 55407  70.0002 253.7595 0003079 270.2288  89.8519 14.98327523 74326,6950.201,96.107,574.206,569.926,0.0
55407.0,STARLINK-5019,PAYLOAD,2024-06-01 14:08:55,14.98339397,0.0002935,70.0004,253.5914,269.4297,90.6526,-0.00027981,-3.431e-05,0.0,0 STARLINK-5019,1 55407U 23014S   24153.58953376 -.00003431  00000-0 -27981-3 0  9995,2 55407  70.0004 253.5914 0002935 269.4297  90.6526 14.98339397 75276,6950.164,96.106,574.069,569.989,0.0
55407.0,STARLINK-5019,PAYLOAD,2024-06-01 23:45:43,14.98341155,0.0003105,70.0007,252.5818,269.3078,90.7725,-0.00011611,-1.479e-05,0.0,0 STARLINK-5019,1 55407U 23014S   24153.99008864 -.00001479  00000-0 -11611-3 0  9996,2 55407  70.0007 252.5818 0003105 269.3078  90.7725 14.98341155 74396,6950.158,96.106,574.181,569.865,0.0
55407.0,STARLINK-5019,PAYLOAD,2024-06-02 12:34:48,14.98327486,0.0002901,70.0006,251.2355,263.1697,96.9132,2.4903e-05,2.04e-06,0.0,0 STARLINK-5019,1 55407U 23014S   24154.52417517  .00000204  00000-0  24903-4 0  9997,2 55407  70.0006 251.2355 0002901 263.1697  96.9132 14.98327486 74479,6950.201,96.107,574.082,570.049,0.0
55407.0,STARLINK-5019,PAYLOAD,2024-06-03 11:00:41,14.98330861,0.0003212,70.0001,248.8788,270.7892,89.2899,0.00014488,1.636e-05,0.0,0 STARLINK-5019,1 55407U 23014S   24155.45881222  .00001636  00000-0  14488-3 0  9994,2 55407  70.0001 248.8788 0003212 270.7892  89.2899 14.98330861 75559,6950.19,96.107,574.288,569.823,0.0
55407.0,STARLINK-5019,PAYLOAD,2024-06-03 23:49:45,14.98333392,0.0003563,69.9984,247.5289,273.8284,86.2468,0.00014502,1.638e-05,0.0,0 STARLINK-5019,1 55407U 23014S   24155.99288985  .00001638  00000-0  14502-3 0  9999,2 55407  69.9984 247.5289 0003563 273.8284  86.2468 14.98333392 74691,6950.182,96.107,574.524,569.571,0.0
55407.0,STARLINK-5019,PAYLOAD,2024-06-04 12:38:50,14.98333987,0.0003076,69.9993,246.1839,268.2966,91.7841,0.0001057,1.169e-05,0.0,0 STARLINK-5019,1 55407U 23014S   24156.52697157  .00001169  00000-0  10570-3 0  9994,2 55407  69.9993 246.1839 0003076 268.2966  91.7841 14.98333987 75711,6950.181,96.107,574.183,569.908,0.0
55407.0,STARLINK-5019,PAYLOAD,2024-06-04 15:51:06,14.98333475,0.000322,69.9993,245.8473,270.6717,89.4073,0.00011049,1.226e-05,0.0,0 STARLINK-5019,1 55407U 23014S   24156.66049090  .00001226  00000-0  11049-3 0  9992,2 55407  69.9993 245.8473 0003220 270.6717  89.4073 14.98333475 75738,6950.182,96.107,574.285,569.809,0.0
55407.0,STARLINK-5019,PAYLOAD,2024-06-04 23:51:46,14.9833284,0.000328,69.9989,245.0055,271.3496,88.7288,5.2978e-05,5.39e-06,0.0,0 STARLINK-5019,1 55407U 23014S   24156.99429184  .00000539  00000-0  52978-4 0  9997,2 55407  69.9989 245.0055 0003280 271.3496  88.7288 14.98332840 74845,6950.184,96.107,574.329,569.769,0.0
55407.0,STARLINK-5019,PAYLOAD,2024-06-05 12:40:50,14.98339036,0.0003179,69.9991,243.6592,269.2072,90.8723,7.7833e-05,8.36e-06,0.0,0 STARLINK-5019,1 55407U 23014S   24157.52836606  .00000836  00000-0  77833-4 0  9995,2 55407  69.9991 243.6592 0003179 269.2072  90.8723 14.98339036 75866,6950.165,96.106,574.239,569.82,0.0
55407.0,STARLINK-5019,PAYLOAD,2024-06-05 15:53:06,14.98338491,0.0003202,69.9991,243.3226,269.6175,90.4617,7.0625e-05,7.5e-06,0.0,0 STARLINK-5019,1 55407U 23014S   24157.66188609  .00000750  00000-0  70625-4 0  9990,2 55407  69.9991 243.3226 0003202 269.6175  90.4617 14.98338491 75886,6950.167,96.106,574.257,569.806,0.0
55407.0,STARLINK-5019,PAYLOAD,2024-06-06 09:30:35,14.9833218,0.0003227,69.9992,241.4711,273.414,86.665,5.9852e-05,6.21e-06,0.0,0 STARLINK-5019,1 55407U 23014S   24158.39624877  .00000621  00000-0  59852-4 0  9999,2 55407  69.9992 241.4711 0003227 273.4140  86.6650 14.98332180 75059,6950.186,96.107,574.294,569.808,0.0
55407.0,STARLINK-5019,PAYLOAD,2024-06-07 09:32:36,14.98329833,0.0003077,69.999,238.9457,262.2836,97.7974,2.1958e-06,-6.7e-07,0.0,0 STARLINK-5019,1 55407U 23014S   24159.39764945 -.00000067  00000-0  21958-5 0  9993,2 55407  69.9990 238.9457 0003077 262.2836  97.7974 14.98329833 75206,6950.193,96.107,574.197,569.92,0.0
55407.0,STARLINK-5019,PAYLOAD,2024-06-08 11:10:45,14.98335766,0.0002988,69.9991,236.2517,257.9895,102.0929,7.8295e-05,8.41e-06,0.0,0 STARLINK-5019,1 55407U 23014S   24160.46580204  .00000841  00000-0  78295-4 0  9991,2 55407  69.9991 236.2517 0002988 257.9895 102.0929 14.98335766 75360,6950.175,96.107,574.117,569.963,0.0
55407.0,STARLINK-5019,PAYLOAD,2024-06-08 22:23:41,14.98332891,0.0004097,69.9979,235.0763,276.0618,84.0074,0.00018332,2.095e-05,0.0,0 STARLINK-5019,1 55407U 23014S   24160.93311917  .00002095  00000-0  18332-3 0  9994,2 55407  69.9979 235.0763 0004097 276.0618  84.0074 14.98332891 76372,6950.184,96.107,574.896,569.201,0.0
55407.0,STARLINK-5019,PAYLOAD,2024-06-09 11:12:47,14.98316996,0.0003407,69.999,233.7283,270.3257,89.7512,-5.6274e-05,-7.64e-06,0.0,0 STARLINK-5019,1 55407U 23014S   24161.46721913 -.00000764  00000-0 -56274-4 0  9995,2 55407  69.9990 233.7283 0003407 270.3257  89.7512 14.98316996 75519,6950.233,96.108,574.466,569.73,0.0
55407.0,STARLINK-5019,PAYLOAD,2024-06-09 14:25:03,14.98319197,0.0003332,69.9992,233.3919,270.8717,89.206,-2.7677e-05,-4.23e-06,0.0,0 STARLINK-5019,1 55407U 23014S   24161.60073808 -.00000423  00000-0 -27677-4 0  9991,2 55407  69.9992 233.3919 0003332 270.8717  89.2060 14.98319197 76471,6950.226,96.108,574.407,569.775,0.0
55407.0,STARLINK-5019,PAYLOAD,2024-06-09 22:25:43,14.98327481,0.0003331,69.9993,232.5499,270.532,89.5457,1.7164e-05,1.12e-06,0.0,0 STARLINK-5019,1 55407U 23014S   24161.93453311  .00000112  00000-0  17164-4 0  9991,2 55407  69.9993 232.5499 0003331 270.5320  89.5457 14.98327481 76526,6950.201,96.107,574.381,569.751,0.0
55407.0,STARLINK-5019,PAYLOAD,2024-06-10 04:50:15,14.98334612,0.0003459,69.9989,231.8765,271.2576,88.8187,3.1052e-05,2.77e-06,0.0,0 STARLINK-5019,1 55407U 23014S   24162.20156842  .00000277  00000-0  31052-4 0  9995,2 55407  69.9989 231.8765 0003459 271.2576  88.8187 14.98334612 75627,6950.179,96.107,574.448,569.64,0.0
55407.0,STARLINK-5019,PAYLOAD,2024-06-10 14:27:03,14.98340197,0.0003413,69.9992,230.8665,270.5892,89.4876,0.00013749,1.548e-05,0.0,0 STARLINK-5019,1 55407U 23014S   24162.60212382  .00001548  00000-0  13749-3 0  9995,2 55407  69.9992 230.8665 0003413 270.5892  89.4876 14.98340197 76620,6950.161,96.106,574.398,569.654,0.0
55407.0,STARLINK-5019,PAYLOAD,2024-06-10 22:27:43,14.98353542,0.0003689,69.9998,230.0249,274.3962,85.6775,-0.00062873,-7.592e-05,0.0,0 STARLINK-5019,1 55407U 23014S   24162.93591436 -.00007592  00000-0 -62873-3 0  9990,2 55407  69.9998 230.0249 0003689 274.3962  85.6775 14.98353542 76670,6950.12,96.105,574.549,569.421,0.0
55407.0,STARLINK-5019,PAYLOAD,2024-06-11 04:52:16,14.98329445,0.0003461,70.0,229.3518,274.3621,85.7142,0.00031738,3.696e-05,0.0,0 STARLINK-5019,1 55407U 23014S   24163.20297168  .00003696  00000-0  31738-3 0  9991,2 55407  70.0000 229.3518 0003461 274.3621  85.7142 14.98329445 75771,6950.195,96.107,574.465,569.654,0.0
55407.0,STARLINK-5019,PAYLOAD,2024-06-11 12:52:56,14.9834103,0.0003479,70.0,228.5103,274.0903,85.9859,0.00042909,5.032e-05,0.0,0 STARLINK-5019,1 55407U 23014S   24163.53676710  .00005032  00000-0  42909-3 0  9999,2 55407  70.0000 228.5103 0003479 274.0903  85.9859 14.98341030 76762,6950.159,96.106,574.442,569.606,0.0
55407.0,STARLINK-5019,PAYLOAD,2024-06-12 04:54:17,14.98331122,0.0003308,70.0007,226.8272,274.7401,85.338,-3.6906e-05,-5.33e-06,0.0,0 STARLINK-5019,1 55407U 23014S   24164.20436855 -.00000533  00000-0 -36906-4 0  9992,2 55407  70.0007 226.8272 0003308 274.7401  85.3380 14.98331122 75929,6950.189,96.107,574.354,569.755,0.0
55407.0,STARLINK-5019,PAYLOAD,2024-06-12 06:30:25,14.98330074,0.0003336,70.0007,226.6589,274.1457,85.932,2.8898e-05,2.52e-06,0.0,0 STARLINK-5019,1 55407U 23014S   24164.27112951  .00000252  00000-0  28898-4 0  9994,2 55407  70.0007 226.6589 0003336 274.1457  85.9320 14.98330074 76874,6950.193,96.107,574.376,569.739,0.0
55407.0,STARLINK-5019,PAYLOAD,2024-06-12 14:31:06,14.9833003,0.0003334,69.9996,225.8172,273.7314,86.3464,-7.8091e-06,-1.86e-06,0.0,0 STARLINK-5019,1 55407U 23014S   24164.60493283 -.00000186  00000-0 -78091-5 0  9990,2 55407  69.9996 225.8172 0003334 273.7314  86.3464 14.98330030 76924,6950.193,96.107,574.375,569.741,0.0
55407.0,STARLINK-5019,PAYLOAD,2024-06-13 04:56:18,14.98335401,0.000333,69.9994,224.3025,273.0426,87.0352,7.4271e-05,7.93e-06,0.0,0 STARLINK-5019,1 55407U 23014S   24165.20576703  .00000793  00000-0  74271-4 0  9993,2 55407  69.9994 224.3025 0003330 273.0426  87.0352 14.98335401 76073,6950.176,96.107,574.356,569.727,0.0
55407.0,STARLINK-5019,PAYLOAD,2024-06-13 11:20:50,14.98333937,0.0003345,69.9996,223.6298,271.015,89.0626,3.8666e-05,3.68e-06,0.0,0 STARLINK-5019,1 55407U 23014S   24165.47280758  .00000368  00000-0  38666-4 0  9990,2 55407  69.9996 223.6298 0003345 271.0150  89.0626 14.98333937 77054,6950.181,96.107,574.371,569.721,0.0
